{
  "type": "FeatureCollection",
  "features": [
    {
      "type": "Feature",
      "properties": {
        "norad_id": 43783,
        "name": "KAZSTSAT",
        "group": "resource",
        "lat": 60.849270171508444,
        "lon": -132.09950481014408,
        "alt_km": 566.9041973362446,
        "timestamp": "2025-12-25T16:53:14.311659+00:00",
        "meta_object_name": "KAZSTSAT",
        "meta_object_id": "2018-099AB",
        "meta_epoch": "2025-12-25T01:56:47.065056",
        "meta_mean_motion": 14.99371736,
        "meta_eccentricity": 0.00062989,
        "meta_inclination": 97.4514,
        "meta_ra_of_asc_node": 33.7337,
        "meta_arg_of_pericenter": 275.0588,
        "meta_mean_anomaly": 84.9917,
        "meta_ephemeris_type": 0,
        "meta_classification_type": "U",
        "meta_norad_cat_id": 43783,
        "meta_element_set_no": 999,
        "meta_rev_at_epoch": 38521,
        "meta_bstar": 5.7850064e-05,
        "meta_mean_motion_dot": 6.52e-06,
        "meta_mean_motion_ddot": 0,
        "tle_line1": "1 43783U 18099AB  25359.08110029  .00000652  00000+0  57850-4 0  9998",
        "tle_line2": "2 43783  97.4514  33.7337 0006298 275.0588  84.9917 14.99371736385210"
      },
      "geometry": {
        "type": "Point",
        "coordinates": [
          -132.09950481014408,
          60.849270171508444
        ]
      }
    },
    {
      "type": "Feature",
      "properties": {
        "norad_id": 43831,
        "name": "SAUDISAT 5A",
        "group": "resource",
        "lat": -40.1061957327382,
        "lon": 65.87110510705479,
        "alt_km": 493.1112363730099,
        "timestamp": "2025-12-25T16:53:14.311670+00:00",
        "meta_object_name": "SAUDISAT 5A",
        "meta_object_id": "2018-102A",
        "meta_epoch": "2025-12-25T07:37:14.240352",
        "meta_mean_motion": 15.25808467,
        "meta_eccentricity": 0.0011038,
        "meta_inclination": 97.3331,
        "meta_ra_of_asc_node": 59.2655,
        "meta_arg_of_pericenter": 37.0983,
        "meta_mean_anomaly": 323.1017,
        "meta_ephemeris_type": 0,
        "meta_classification_type": "U",
        "meta_norad_cat_id": 43831,
        "meta_element_set_no": 999,
        "meta_rev_at_epoch": 38914,
        "meta_bstar": 0.00026789024,
        "meta_mean_motion_dot": 6.789e-05,
        "meta_mean_motion_ddot": 0,
        "tle_line1": "1 43831U 18102A   25359.31752593  .00006789  00000+0  26789-3 0  9994",
        "tle_line2": "2 43831  97.3331  59.2655 0011038  37.0983 323.1017 15.25808467389140"
      },
      "geometry": {
        "type": "Point",
        "coordinates": [
          65.87110510705479,
          -40.1061957327382
        ]
      }
    },
    {
      "type": "Feature",
      "properties": {
        "norad_id": 43833,
        "name": "SAUDISAT 5B",
        "group": "resource",
        "lat": 27.868906671057697,
        "lon": 58.49629367975937,
        "alt_km": 478.22813345851955,
        "timestamp": "2025-12-25T16:53:14.311679+00:00",
        "meta_object_name": "SAUDISAT 5B",
        "meta_object_id": "2018-102C",
        "meta_epoch": "2025-12-25T07:19:23.580192",
        "meta_mean_motion": 15.26154438,
        "meta_eccentricity": 0.00117842,
        "meta_inclination": 97.3425,
        "meta_ra_of_asc_node": 62.0145,
        "meta_arg_of_pericenter": 39.1113,
        "meta_mean_anomaly": 321.0975,
        "meta_ephemeris_type": 0,
        "meta_classification_type": "U",
        "meta_norad_cat_id": 43833,
        "meta_element_set_no": 999,
        "meta_rev_at_epoch": 38925,
        "meta_bstar": 0.0002419181,
        "meta_mean_motion_dot": 6.189e-05,
        "meta_mean_motion_ddot": 0,
        "tle_line1": "1 43833U 18102C   25359.30513403  .00006189  00000+0  24192-3 0  9990",
        "tle_line2": "2 43833  97.3425  62.0145 0011784  39.1113 321.0975 15.26154438389253"
      },
      "geometry": {
        "type": "Point",
        "coordinates": [
          58.49629367975937,
          27.868906671057697
        ]
      }
    },
    {
      "type": "Feature",
      "properties": {
        "norad_id": 44622,
        "name": "GAOFEN-10R",
        "group": "resource",
        "lat": 62.96371432957511,
        "lon": 143.31975120757548,
        "alt_km": 616.1090307600189,
        "timestamp": "2025-12-25T16:53:14.311690+00:00",
        "meta_object_name": "GAOFEN-10R",
        "meta_object_id": "2019-066A",
        "meta_epoch": "2025-12-25T06:38:59.973792",
        "meta_mean_motion": 14.82833447,
        "meta_eccentricity": 0.0006989,
        "meta_inclination": 98.0295,
        "meta_ra_of_asc_node": 306.8334,
        "meta_arg_of_pericenter": 4.9351,
        "meta_mean_anomaly": 355.193,
        "meta_ephemeris_type": 0,
        "meta_classification_type": "U",
        "meta_norad_cat_id": 44622,
        "meta_element_set_no": 999,
        "meta_rev_at_epoch": 33660,
        "meta_bstar": 0.00021267168,
        "meta_mean_motion_dot": 1.667e-05,
        "meta_mean_motion_ddot": 0,
        "tle_line1": "1 44622U 19066A   25359.27708303  .00001667  00000+0  21267-3 0  9994",
        "tle_line2": "2 44622  98.0295 306.8334 0006989   4.9351 355.1930 14.82833447336602"
      },
      "geometry": {
        "type": "Point",
        "coordinates": [
          143.31975120757548,
          62.96371432957511
        ]
      }
    },
    {
      "type": "Feature",
      "properties": {
        "norad_id": 44804,
        "name": "CARTOSAT-3",
        "group": "resource",
        "lat": 5.281579499397032,
        "lon": -120.18514810051437,
        "alt_km": 516.7513801965506,
        "timestamp": "2025-12-25T16:53:14.311700+00:00",
        "meta_object_name": "CARTOSAT-3",
        "meta_object_id": "2019-081A",
        "meta_epoch": "2025-12-25T06:38:16.881792",
        "meta_mean_motion": 15.19254583,
        "meta_eccentricity": 0.00136488,
        "meta_inclination": 97.4563,
        "meta_ra_of_asc_node": 58.6996,
        "meta_arg_of_pericenter": 43.9438,
        "meta_mean_anomaly": 316.2879,
        "meta_ephemeris_type": 0,
        "meta_classification_type": "U",
        "meta_norad_cat_id": 44804,
        "meta_element_set_no": 999,
        "meta_rev_at_epoch": 33706,
        "meta_bstar": 0.00014406766,
        "meta_mean_motion_dot": 2.974e-05,
        "meta_mean_motion_ddot": 0,
        "tle_line1": "1 44804U 19081A   25359.27658428  .00002974  00000+0  14407-3 0  9995",
        "tle_line2": "2 44804  97.4563  58.6996 0013648  43.9438 316.2879 15.19254583337060"
      },
      "geometry": {
        "type": "Point",
        "coordinates": [
          -120.18514810051437,
          5.281579499397032
        ]
      }
    },
    {
      "type": "Feature",
      "properties": {
        "norad_id": 44819,
        "name": "GAOFEN-12 01",
        "group": "resource",
        "lat": -75.37365328965643,
        "lon": 37.38679694044979,
        "alt_km": 634.9564458724162,
        "timestamp": "2025-12-25T16:53:14.311710+00:00",
        "meta_object_name": "GAOFEN-12 01",
        "meta_object_id": "2019-082A",
        "meta_epoch": "2025-12-25T07:30:22.262688",
        "meta_mean_motion": 14.80671482,
        "meta_eccentricity": 0.00022292,
        "meta_inclination": 97.8125,
        "meta_ra_of_asc_node": 5.2637,
        "meta_arg_of_pericenter": 177.9601,
        "meta_mean_anomaly": 182.1621,
        "meta_ephemeris_type": 0,
        "meta_classification_type": "U",
        "meta_norad_cat_id": 44819,
        "meta_element_set_no": 999,
        "meta_rev_at_epoch": 32836,
        "meta_bstar": 7.1503226e-05,
        "meta_mean_motion_dot": 4.99e-06,
        "meta_mean_motion_ddot": 0,
        "tle_line1": "1 44819U 19082A   25359.31275767  .00000499  00000+0  71503-4 0  9999",
        "tle_line2": "2 44819  97.8125   5.2637 0002229 177.9601 182.1621 14.80671482328363"
      },
      "geometry": {
        "type": "Point",
        "coordinates": [
          37.38679694044979,
          -75.37365328965643
        ]
      }
    },
    {
      "type": "Feature",
      "properties": {
        "norad_id": 44873,
        "name": "CSG-1",
        "group": "resource",
        "lat": 74.93083399069063,
        "lon": 31.791985114460644,
        "alt_km": 614.4149736721583,
        "timestamp": "2025-12-25T16:53:14.311720+00:00",
        "meta_object_name": "CSG-1",
        "meta_object_id": "2019-092A",
        "meta_epoch": "2025-12-25T06:42:12.773664",
        "meta_mean_motion": 14.8216085,
        "meta_eccentricity": 0.00014687,
        "meta_inclination": 97.8805,
        "meta_ra_of_asc_node": 180.4146,
        "meta_arg_of_pericenter": 84.4389,
        "meta_mean_anomaly": 275.6992,
        "meta_ephemeris_type": 0,
        "meta_classification_type": "U",
        "meta_norad_cat_id": 44873,
        "meta_element_set_no": 999,
        "meta_rev_at_epoch": 32571,
        "meta_bstar": 8.4871546e-05,
        "meta_mean_motion_dot": 6.24e-06,
        "meta_mean_motion_ddot": 0,
        "tle_line1": "1 44873U 19092A   25359.27931451  .00000624  00000+0  84872-4 0  9997",
        "tle_line2": "2 44873  97.8805 180.4146 0001468  84.4389 275.6992 14.82160850325717"
      },
      "geometry": {
        "type": "Point",
        "coordinates": [
          31.791985114460644,
          74.93083399069063
        ]
      }
    }
  ]
}